STARLINK-36441          
1 67469U 26008AA  26043.83335647 -.01992445  00000+0 -57681-1 0  9995
2 67469  43.0000 346.0214 0001473 265.1329 174.5878 15.38456680  5803
STARLINK-36454          
1 67470U 26008AB  26043.83335647 -.02083558  00000+0 -44396-1 0  9993
2 67470  42.9998 345.7967 0001201 259.6765 270.6148 15.47618455  5809
STARLINK-36334          
1 67471U 26008AC  26043.83335647 -.00955556  00000+0 -35885-1 0  9991
2 67471  43.0001 346.0588 0001091 240.9576 180.7249 15.29051910  5800
STARLINK-36269          
1 67472U 26008AD  26043.83335647 -.01974776  00000+0 -61933-1 0  9991
2 67472  43.0000 345.9159 0001237 276.3257 204.9529 15.35980869  5826
STARLINK-36408          
1 67473U 26008AE  26043.83335647 -.02016254  00000+0 -52102-1 0  9999
2 67473  42.9996 345.8969 0001155 273.1122 216.8576 15.41905069  5822
ALSAT-3A                
1 67474U 26009A   26043.78529167  .00006711  00000+0  28349-3 0  9998
2 67474  97.4676 118.4248 0012806 156.1735 204.0097 15.23512021  4336
CZ-2C R/B               
1 67475U 26009B   26043.77254719  .00002815  00000+0  19065-3 0  9992
2 67475  97.1738 116.1547 0100383 124.6919 236.3817 15.03154059  4331
TIANQI-37               
1 67476U 26010A   26039.27753693  .00000165  00000+0  15719-3 0  9998
2 67476  44.9825 296.6529 0012909  70.2546 289.9683 14.13528441  3324
TIANQI-38               
1 67477U 26010B   26039.27310946  .00000208  00000+0  17865-3 0  9991
2 67477  44.9788 296.6199 0011754  75.6443 284.5700 14.13905796  3321
TIANQI-39               
1 67478U 26010C   26039.27859865  .00000167  00000+0  15988-3 0  9998
2 67478  44.9839 296.6613 0016488  82.3005 277.9705 14.13055169  3329
TIANQI-40               
1 67479U 26010D   26040.19213046  .00000156  00000+0  15351-3 0  9999
2 67479  44.9786 292.4342 0011741  80.4003 279.8161 14.13182235  3454
SZ-20 MODULE            
1 67481U 25082C   26043.33395883  .00027032  00000+0  29497-3 0  9997
2 67481  41.4801   1.8792 0007393 164.3748 195.7321 15.62718537273654
